<?xml version='1.0' encoding='utf-8'?>
<kml xmlns="http://www.opengis.net/kml/2.2"><Document><name>Athens holiday, 19–26 September 2026</name><Placemark><name>Koukaki home base — Veikou 52</name><description>Base — Accommodation address (building only)</description><Point><coordinates>23.7243523,37.9653411,0</coordinates></Point></Placemark><Placemark><name>Athens International Airport</name><description>Transit — ATH</description><Point><coordinates>23.9546218,37.9372535,0</coordinates></Point></Placemark><Placemark><name>Syngrou-Fix metro</name><description>Transit — Nearest practical metro for Veikou 52</description><Point><coordinates>23.7268179,37.9646255,0</coordinates></Point></Placemark><Placemark><name>Guarantee</name><description>Sep 19 — Sandwiches</description><Point><coordinates>23.7261946,37.9661273,0</coordinates></Point></Placemark><Placemark><name>Lolos</name><description>Sep 19 — Neighborhood taverna</description><Point><coordinates>23.7216385,37.9633458,0</coordinates></Point></Placemark><Placemark><name>Takis Bakery</name><description>Sep 19 — 14 Misaraliotou; pies and bread</description><Point><coordinates>23.7268349,37.9676705,0</coordinates></Point></Placemark><Placemark><name>Acropolis Museum</name><description>Sep 20 — Museum</description><Point><coordinates>23.7284706,37.9685331,0</coordinates></Point></Placemark><Placemark><name>Acropolis of Athens</name><description>Sep 20 — Archaeological site</description><Point><coordinates>23.7263197,37.9716894,0</coordinates></Point></Placemark><Placemark><name>Mani Mani</name><description>Sep 20 — 10 Falirou; Mani cuisine</description><Point><coordinates>23.7283917,37.9666891,0</coordinates></Point></Placemark><Placemark><name>Odeon of Herodes Atticus</name><description>Sep 20 — South-slope view</description><Point><coordinates>23.7245465,37.9708191,0</coordinates></Point></Placemark><Placemark><name>Philopappos Monument</name><description>Sep 20 — Sunset viewpoint</description><Point><coordinates>23.7213682,37.9673635,0</coordinates></Point></Placemark><Placemark><name>To Kati Allo</name><description>Sep 20 — Taverna</description><Point><coordinates>23.7286843,37.9677007,0</coordinates></Point></Placemark><Placemark><name>Anafiotika</name><description>Sep 21 — Historic quarter</description><Point><coordinates>23.7281334,37.9724074,0</coordinates></Point></Placemark><Placemark><name>Hadrian's Arch</name><description>Sep 21 — Monument</description><Point><coordinates>23.7320795,37.9701941,0</coordinates></Point></Placemark><Placemark><name>Platanos Taverna</name><description>Sep 21 — 4 Diogenous; classic Plaka alternative</description><Point><coordinates>23.7278834,37.9742823,0</coordinates></Point></Placemark><Placemark><name>Roman Agora</name><description>Sep 21 — Archaeological site</description><Point><coordinates>23.7263311,37.9743035,0</coordinates></Point></Placemark><Placemark><name>Saita Taverna</name><description>Sep 21 — 21 Kydathineon; traditional taverna</description><Point><coordinates>23.7321004,37.9723997,0</coordinates></Point></Placemark><Placemark><name>Temple of Olympian Zeus</name><description>Sep 21 — Archaeological site</description><Point><coordinates>23.7330955,37.969437,0</coordinates></Point></Placemark><Placemark><name>To Kafeneio</name><description>Sep 21 — Traditional lunch</description><Point><coordinates>23.729649,37.9726667,0</coordinates></Point></Placemark><Placemark><name>Ancient Agora</name><description>Sep 22 — Archaeological site</description><Point><coordinates>23.7224934,37.9747095,0</coordinates></Point></Placemark><Placemark><name>Kerameikos</name><description>Sep 22 — Archaeological site</description><Point><coordinates>23.7182209,37.9786336,0</coordinates></Point></Placemark><Placemark><name>Monastiraki Square</name><description>Sep 22 — Historic center</description><Point><coordinates>23.7259471,37.9763614,0</coordinates></Point></Placemark><Placemark><name>Oikonomou Taverna</name><description>Sep 22 — 32 Kydantidon; classic Petralona cooking (street-level pin)</description><Point><coordinates>23.7125858,37.9700153,0</coordinates></Point></Placemark><Placemark><name>Stoa of Attalos</name><description>Sep 22 — Agora museum</description><Point><coordinates>23.7242179,37.9751608,0</coordinates></Point></Placemark><Placemark><name>Ta Karamanlidika tou Fani</name><description>Sep 22 — 1 Sokratous; deli and meze</description><Point><coordinates>23.7256935,37.98014,0</coordinates></Point></Placemark><Placemark><name>Ama Lachei</name><description>Sep 23 — Courtyard meze</description><Point><coordinates>23.7369634,37.9879297,0</coordinates></Point></Placemark><Placemark><name>Exarchia Square</name><description>Sep 23 — Neighborhood reference</description><Point><coordinates>23.7347625,37.9865114,0</coordinates></Point></Placemark><Placemark><name>National Archaeological Museum</name><description>Sep 23 — Museum</description><Point><coordinates>23.7329577,37.9890123,0</coordinates></Point></Placemark><Placemark><name>Pharaoh</name><description>Sep 23 — Modern Greek dinner</description><Point><coordinates>23.7306894,37.9870354,0</coordinates></Point></Placemark><Placemark><name>Warehouse</name><description>Sep 23 — Coffee or wine</description><Point><coordinates>23.7367607,37.9841401,0</coordinates></Point></Placemark><Placemark><name>Aegina port</name><description>Island — Island ferry port</description><Point><coordinates>23.4261414,37.7454072,0</coordinates></Point></Placemark><Placemark><name>Hydra port</name><description>Island — Island ferry port</description><Point><coordinates>23.4667279,37.3508044,0</coordinates></Point></Placemark><Placemark><name>Marina Kallitheas cruise departure</name><description>Island — Three-island cruise departure; confirm pier on voucher</description><Point><coordinates>23.6864904,37.937835,0</coordinates></Point></Placemark><Placemark><name>Piraeus ferry departure area</name><description>Island — Saronic ferries; check your ticket for the exact gate</description><Point><coordinates>23.6420799,37.9482534,0</coordinates></Point></Placemark><Placemark><name>Poros town port</name><description>Island — Poros town waterfront</description><Point><coordinates>23.44759,37.49727,0</coordinates></Point></Placemark><Placemark><name>Skotadis</name><description>Island — Aegina waterfront seafood</description><Point><coordinates>23.4295886,37.7450115,0</coordinates></Point></Placemark><Placemark><name>Xeri Elia</name><description>Island — Hydra traditional taverna</description><Point><coordinates>23.4681499,37.3487656,0</coordinates></Point></Placemark><Placemark><name>Benaki Museum of Greek Culture</name><description>Sep 25 — 1 Koumbari; Greek culture museum</description><Point><coordinates>23.7403449,37.9760309,0</coordinates></Point></Placemark><Placemark><name>Mavro Provato</name><description>Sep 25 — Pangrati meze</description><Point><coordinates>23.7449791,37.9714752,0</coordinates></Point></Placemark><Placemark><name>National Garden</name><description>Sep 25 — Garden</description><Point><coordinates>23.7377926,37.9735816,0</coordinates></Point></Placemark><Placemark><name>Panathenaic Stadium</name><description>Sep 25 — Historic stadium</description><Point><coordinates>23.7409451,37.9684357,0</coordinates></Point></Placemark><Placemark><name>Syntagma Square</name><description>Sep 25 — Square</description><Point><coordinates>23.7349503,37.9755158,0</coordinates></Point></Placemark><Placemark><name>Drupes Spritzeria</name><description>Sep 26 — 20 Zitrou; coffee/pastries (street-level pin)</description><Point><coordinates>23.7273486,37.9676705,0</coordinates></Point></Placemark></Document></kml>